IRIDIUM 112             
1 41925U 17003J   24006.30581298  .00000340  00000+0  11418-3 0  9994
2 41925  86.3969 101.4884 0002196 100.6837 259.4606 14.34218718365299
IRIDIUM 111             
1 41926U 17003K   24006.29312746  .00000301  00000+0  10057-3 0  9998
2 41926  86.3970 101.5441 0002361  92.2370 267.9096 14.34217231365278
IRIDIUM 113             
1 42803U 17039A   24006.41262878  .00000126  00000+0  37908-4 0  9996
2 42803  86.3985 335.2419 0002449  89.1683 270.9793 14.34218346343226
IRIDIUM 123             
1 42804U 17039B   24006.52388395  .00000333  00000+0  11178-3 0  9992
2 42804  86.3971   6.6853 0002390  90.8783 269.2687 14.34218118342003
IRIDIUM 120             
1 42805U 17039C   24006.40628549  .00000318  00000+0  10637-3 0  9990
2 42805  86.3973 335.1426 0002227  85.2597 274.8853 14.34218875343213
IRIDIUM 115             
1 42806U 17039D   24006.83082417  .00000470  00000+0  13373-3 0  9995
2 42806  86.4512 334.9660 0002484  88.8131 271.3354 14.43283386345555
IRIDIUM 118             
1 42807U 17039E   24006.48582851  .00000338  00000+0  11363-3 0  9994
2 42807  86.3971   6.7033 0002197  90.4783 269.6664 14.34218355341997
IRIDIUM 117             
1 42808U 17039F   24006.50483512  .00000095  00000+0  26823-4 0  9990
2 42808  86.3971   6.6612 0002312  87.9010 272.2450 14.34218442342028
